{"type": "FeatureCollection", "features": [ {"type": "Feature", "properties": {"norad_id": 37550, "name": "IRIDIUM 33 DEB", "group": "iridium-33-debris", "lat": 75.30408551709289, "lon": 38.20425792321032, "alt_km": 659.8447792512952, "timestamp": "2025-12-11T22:43:47.655457+00:00", "meta": {"OBJECT_NAME": "IRIDIUM 33 DEB", "OBJECT_ID": "1997-051XK", "EPOCH": "2025-12-11T09:17:28.517568", "MEAN_MOTION": 14.67183322, "ECCENTRICITY": 0.00055208, "INCLINATION": 86.3775, "RA_OF_ASC_NODE": 24.4743, "ARG_OF_PERICENTER": 114.4049, "MEAN_ANOMALY": 245.7742, "EPHEMERIS_TYPE": 0, "CLASSIFICATION_TYPE": "U", "NORAD_CAT_ID": 37550, "ELEMENT_SET_NO": 999, "REV_AT_EPOCH": 86313, "BSTAR": 0.0025374649, "MEAN_MOTION_DOT": 0.00014314, "MEAN_MOTION_DDOT": 0}, "tle": {"line1": "1 37550U 97051XK  25345.38713562  .00014314  00000+0  25375-2 0  9992", "line2": "2 37550  86.3775  24.4743 0005520 114.4049 245.7742 14.67183322863136"}}, "geometry": {"type": "Point", "coordinates": [38.20425792321032, 75.30408551709289]}}, {"type": "Feature", "properties": {"norad_id": 37562, "name": "IRIDIUM 33 DEB", "group": "iridium-33-debris", "lat": -45.084795122861046, "lon": 40.299530301471556, "alt_km": 728.6279106920229, "timestamp": "2025-12-11T22:43:47.655469+00:00", "meta": {"OBJECT_NAME": "IRIDIUM 33 DEB", "OBJECT_ID": "1997-051XX", "EPOCH": "2025-12-10T10:43:42.898656", "MEAN_MOTION": 14.56439028, "ECCENTRICITY": 0.00267432, "INCLINATION": 86.3738, "RA_OF_ASC_NODE": 44.6002, "ARG_OF_PERICENTER": 115.0841, "MEAN_ANOMALY": 259.891, "EPHEMERIS_TYPE": 0, "CLASSIFICATION_TYPE": "U", "NORAD_CAT_ID": 37562, "ELEMENT_SET_NO": 999, "REV_AT_EPOCH": 86295, "BSTAR": 0.0016081413, "MEAN_MOTION_DOT": 7.198e-05, "MEAN_MOTION_DDOT": 0}, "tle": {"line1": "1 37562U 97051XX  25344.44702429  .00007198  00000+0  16081-2 0  9997", "line2": "2 37562  86.3738  44.6002 0026743 115.0841 259.8910 14.56439028862954"}}, "geometry": {"type": "Point", "coordinates": [40.299530301471556, -45.084795122861046]}}, {"type": "Feature", "properties": {"norad_id": 37565, "name": "IRIDIUM 33 DEB", "group": "iridium-33-debris", "lat": 69.67916396218548, "lon": 179.9964070145299, "alt_km": 704.1622440636565, "timestamp": "2025-12-11T22:43:47.655483+00:00", "meta": {"OBJECT_NAME": "IRIDIUM 33 DEB", "OBJECT_ID": "1997-051YA", "EPOCH": "2025-12-09T09:00:32.620320", "MEAN_MOTION": 14.51496664, "ECCENTRICITY": 0.00152947, "INCLINATION": 86.3494, "RA_OF_ASC_NODE": 11.0435, "ARG_OF_PERICENTER": 94.02, "MEAN_ANOMALY": 266.2754, "EPHEMERIS_TYPE": 0, "CLASSIFICATION_TYPE": "U", "NORAD_CAT_ID": 37565, "ELEMENT_SET_NO": 999, "REV_AT_EPOCH": 65788, "BSTAR": 0.00087733557, "MEAN_MOTION_DOT": 3.53e-05, "MEAN_MOTION_DDOT": 0}, "tle": {"line1": "1 37565U 97051YA  25343.37537755  .00003530  00000+0  87734-3 0  9999", "line2": "2 37565  86.3494  11.0435 0015294  94.0200 266.2754 14.51496664657884"}}, "geometry": {"type": "Point", "coordinates": [179.9964070145299, 69.67916396218548]}}, {"type": "Feature", "properties": {"norad_id": 38017, "name": "IRIDIUM 33 DEB", "group": "iridium-33-debris", "lat": -26.41663182534862, "lon": -11.60880380104894, "alt_km": 746.458786288521, "timestamp": "2025-12-11T22:43:47.655496+00:00", "meta": {"OBJECT_NAME": "IRIDIUM 33 DEB", "OBJECT_ID": "1997-051YD", "EPOCH": "2025-12-09T11:46:33.974400", "MEAN_MOTION": 14.48798155, "ECCENTRICITY": 0.00922627, "INCLINATION": 86.3416, "RA_OF_ASC_NODE": 167.6374, "ARG_OF_PERICENTER": 113.885, "MEAN_ANOMALY": 247.2055, "EPHEMERIS_TYPE": 0, "CLASSIFICATION_TYPE": "U", "NORAD_CAT_ID": 38017, "ELEMENT_SET_NO": 999, "REV_AT_EPOCH": 61355, "BSTAR": 0.007075922, "MEAN_MOTION_DOT": 0.00028304, "MEAN_MOTION_DDOT": 0}, "tle": {"line1": "1 38017U 97051YD  25343.49067100  .00028304  00000+0  70759-2 0  9991", "line2": "2 38017  86.3416 167.6374 0092262 113.8850 247.2055 14.48798155613557"}}, "geometry": {"type": "Point", "coordinates": [-11.60880380104894, -26.41663182534862]}}, {"type": "Feature", "properties": {"norad_id": 38022, "name": "IRIDIUM 33 DEB", "group": "iridium-33-debris", "lat": 8.749775417388907, "lon": 17.365350050454808, "alt_km": 732.2164441513132, "timestamp": "2025-12-11T22:43:47.655509+00:00", "meta": {"OBJECT_NAME": "IRIDIUM 33 DEB", "OBJECT_ID": "1997-051YJ", "EPOCH": "2025-12-10T20:01:44.139360", "MEAN_MOTION": 14.41229968, "ECCENTRICITY": 0.0046709, "INCLINATION": 86.2688, "RA_OF_ASC_NODE": 17.2769, "ARG_OF_PERICENTER": 56.5664, "MEAN_ANOMALY": 303.9989, "EPHEMERIS_TYPE": 0, "CLASSIFICATION_TYPE": "U", "NORAD_CAT_ID": 38022, "ELEMENT_SET_NO": 999, "REV_AT_EPOCH": 69166, "BSTAR": 0.0014202, "MEAN_MOTION_DOT": 4.664e-05, "MEAN_MOTION_DDOT": 0}, "tle": {"line1": "1 38022U 97051YJ  25344.83453865  .00004664  00000+0  14202-2 0  9997", "line2": "2 38022  86.2688  17.2769 0046709  56.5664 303.9989 14.41229968691660"}}, "geometry": {"type": "Point", "coordinates": [17.365350050454808, 8.749775417388907]}}, {"type": "Feature", "properties": {"norad_id": 38028, "name": "IRIDIUM 33 DEB", "group": "iridium-33-debris", "lat": 40.857821223909625, "lon": 177.42784878057634, "alt_km": 714.3441208400391, "timestamp": "2025-12-11T22:43:47.655519+00:00", "meta": {"OBJECT_NAME": "IRIDIUM 33 DEB", "OBJECT_ID": "1997-051YQ", "EPOCH": "2025-12-09T08:38:54.868992", "MEAN_MOTION": 14.46171938, "ECCENTRICITY": 0.00301795, "INCLINATION": 86.3256, "RA_OF_ASC_NODE": 1.7381, "ARG_OF_PERICENTER": 131.6061, "MEAN_ANOMALY": 228.7734, "EPHEMERIS_TYPE": 0, "CLASSIFICATION_TYPE": "U", "NORAD_CAT_ID": 38028, "ELEMENT_SET_NO": 999, "REV_AT_EPOCH": 65446, "BSTAR": 0.0004464513, "MEAN_MOTION_DOT": 1.624e-05, "MEAN_MOTION_DDOT": 0}, "tle": {"line1": "1 38028U 97051YQ  25343.36035728  .00001624  00000+0  44645-3 0  9992", "line2": "2 38028  86.3256   1.7381 0030179 131.6061 228.7734 14.46171938654463"}}, "geometry": {"type": "Point", "coordinates": [177.42784878057634, 40.857821223909625]}}, {"type": "Feature", "properties": {"norad_id": 38228, "name": "IRIDIUM 33 DEB", "group": "iridium-33-debris", "lat": 53.66772799822095, "lon": -136.24671908744494, "alt_km": 776.9732130416714, "timestamp": "2025-12-11T22:43:47.655530+00:00", "meta": {"OBJECT_NAME": "IRIDIUM 33 DEB", "OBJECT_ID": "1997-051ZC", "EPOCH": "2025-12-08T11:59:08.255904", "MEAN_MOTION": 14.27257685, "ECCENTRICITY": 0.00637921, "INCLINATION": 86.2952, "RA_OF_ASC_NODE": 50.2726, "ARG_OF_PERICENTER": 203.1298, "MEAN_ANOMALY": 220.077, "EPHEMERIS_TYPE": 0, "CLASSIFICATION_TYPE": "U", "NORAD_CAT_ID": 38228, "ELEMENT_SET_NO": 999, "REV_AT_EPOCH": 84721, "BSTAR": 0.00059886698, "MEAN_MOTION_DOT": 1.514e-05, "MEAN_MOTION_DDOT": 0}, "tle": {"line1": "1 38228U 97051ZC  25342.49940111  .00001514  00000+0  59887-3 0  9990", "line2": "2 38228  86.2952  50.2726 0063792 203.1298 220.0770 14.27257685847218"}}, "geometry": {"type": "Point", "coordinates": [-136.24671908744494, 53.66772799822095]}}, {"type": "Feature", "properties": {"norad_id": 38241, "name": "IRIDIUM 33 DEB", "group": "iridium-33-debris", "lat": -30.37887246795357, "lon": -11.21054702483206, "alt_km": 716.9271506561463, "timestamp": "2025-12-11T22:43:47.655540+00:00", "meta": {"OBJECT_NAME": "IRIDIUM 33 DEB", "OBJECT_ID": "1997-051ZR", "EPOCH": "2025-12-11T08:00:47.481696", "MEAN_MOTION": 14.54853492, "ECCENTRICITY": 0.00056662, "INCLINATION": 86.3236, "RA_OF_ASC_NODE": 351.2198, "ARG_OF_PERICENTER": 76.7484, "MEAN_ANOMALY": 283.4354, "EPHEMERIS_TYPE": 0, "CLASSIFICATION_TYPE": "U", "NORAD_CAT_ID": 38241, "ELEMENT_SET_NO": 999, "REV_AT_EPOCH": 60180, "BSTAR": 0.0013259899, "MEAN_MOTION_DOT": 5.712e-05, "MEAN_MOTION_DDOT": 0}, "tle": {"line1": "1 38241U 97051ZR  25345.33388289  .00005712  00000+0  13260-2 0  9991", "line2": "2 38241  86.3236 351.2198 0005666  76.7484 283.4354 14.54853492601805"}}, "geometry": {"type": "Point", "coordinates": [-11.21054702483206, -30.37887246795357]}}, {"type": "Feature", "properties": {"norad_id": 38474, "name": "IRIDIUM 33 DEB", "group": "iridium-33-debris", "lat": 64.68205521367845, "lon": -177.34651816162233, "alt_km": 699.0212441846097, "timestamp": "2025-12-11T22:43:47.655550+00:00", "meta": {"OBJECT_NAME": "IRIDIUM 33 DEB", "OBJECT_ID": "1997-051AAB", "EPOCH": "2025-12-10T08:07:41.049120", "MEAN_MOTION": 14.50673883, "ECCENTRICITY": 0.00282895, "INCLINATION": 86.3478, "RA_OF_ASC_NODE": 11.1125, "ARG_OF_PERICENTER": 95.1128, "MEAN_ANOMALY": 265.3307, "EPHEMERIS_TYPE": 0, "CLASSIFICATION_TYPE": "U", "NORAD_CAT_ID": 38474, "ELEMENT_SET_NO": 999, "REV_AT_EPOCH": 65283, "BSTAR": 0.00076503501, "MEAN_MOTION_DOT": 3.04e-05, "MEAN_MOTION_DDOT": 0}, "tle": {"line1": "1 38474U 97051AAB 25344.33866955  .00003040  00000+0  76504-3 0  9992", "line2": "2 38474  86.3478  11.1125 0028289  95.1128 265.3307 14.50673883652835"}}, "geometry": {"type": "Point", "coordinates": [-177.34651816162233, 64.68205521367845]}}, {"type": "Feature", "properties": {"norad_id": 39777, "name": "IRIDIUM 33 DEB", "group": "iridium-33-debris", "lat": 35.22038603715095, "lon": -7.430145863822305, "alt_km": 672.2631746251855, "timestamp": "2025-12-11T22:43:47.655562+00:00", "meta": {"OBJECT_NAME": "IRIDIUM 33 DEB", "OBJECT_ID": "1997-051AAJ", "EPOCH": "2025-12-11T12:10:17.902560", "MEAN_MOTION": 14.56385877, "ECCENTRICITY": 0.00598059, "INCLINATION": 85.9631, "RA_OF_ASC_NODE": 175.641, "ARG_OF_PERICENTER": 190.6984, "MEAN_ANOMALY": 169.2957, "EPHEMERIS_TYPE": 0, "CLASSIFICATION_TYPE": "U", "NORAD_CAT_ID": 39777, "ELEMENT_SET_NO": 999, "REV_AT_EPOCH": 60167, "BSTAR": 0.0050820319, "MEAN_MOTION_DOT": 0.00023171, "MEAN_MOTION_DDOT": 0}, "tle": {"line1": "1 39777U 97051AAJ 25345.50715165  .00023171  00000+0  50820-2 0  9994", "line2": "2 39777  85.9631 175.6410 0059805 190.6984 169.2957 14.56385877601678"}}, "geometry": {"type": "Point", "coordinates": [-7.430145863822305, 35.22038603715095]}}]}